zipcode,Station_Name,Corner,Latitude,Longitude
10002,Essex St,NE,40.71841,-73.987181
10002,Essex St,NW,40.718551,-73.98765
10002,Bowery,SE,40.719977,-73.993576
10002,Bowery,NE,40.720291,-73.993411
10002,Grand St,NE,40.718155,-73.993452
10002,Grand St,NE,40.718191,-73.993577
10002,Grand St,NW,40.718265,-73.993877
10002,2nd Av,SW,40.722807,-73.988942
10002,2nd Av,NW,40.7232,-73.988863
10002,Delancey St,NW,40.718781,-73.988233
10002,Delancey St,NE,40.718778,-73.987961
10002,East Broadway,NW,40.712727,-73.990126
10002,Spring St,SE,40.722116,-73.996912
10002,Spring St,NE,40.722235,-73.996818
10002,2nd Av,NW,40.72395,-73.991298
10002,2nd Av,SW,40.723665,-73.991651
10002,Delancey St,SW,40.718372,-73.988445
10002,Delancey St,SE,40.718207,-73.988273
10002,East Broadway,SE,40.713906,-73.990014
10002,East Broadway,NW,40.714194,-73.990352
10002,East Broadway,NE,40.714404,-73.989918
10002,Spring St,NW,40.722468,-73.997397
10002,Spring St,SW,40.72239,-73.997437
zipcode,Station_Name,Corner,Latitude,Longitude
10021,Roosevelt Island,SE,40.759016,-73.953505
10021,Lexington Av,NW,40.764884,-73.966514
10021,Lexington Av,NW,40.764874,-73.966431
10021,Lexington Av,NW,40.764881,-73.966411
10021,Lexington Av,SW,40.764721,-73.966552
10021,Lexington Av,NW,40.764866,-73.966422
10021,77th St,SW,40.773669,-73.960135
10021,77th St,NW,40.773779,-73.959954
10021,77th St,NW,40.773779,-73.960041
10021,77th St,SW,40.773636,-73.96006
10021,68th St-Hunter College,SW,40.76787,-73.964244
10021,68th St-Hunter College,SW,40.767817,-73.964355
10021,68th St-Hunter College,SE,40.767703,-73.963979
10021,68th St-Hunter College,NW,40.767981,-73.964178
10021,68th St-Hunter College,NE,40.767863,-73.963898
10021,59th St,SW,40.762836,-73.96804
10021,Lexington Av,SW,40.762092,-73.96634
10021,Lexington Av,NW,40.762353,-73.966155
10021,Lexington Av,SE,40.761996,-73.966105
10021,Lexington Av,NE,40.762255,-73.965918
10021,77th St,SE,40.773526,-73.959734
10021,77th St,NE,40.773631,-73.959659
10021,77th St,SE,40.773493,-73.959659
10021,77th St,NE,40.773603,-73.959578
10021,59th St,SE,40.76266,-73.967625
10021,59th St,NW,40.762414,-73.968371
10021,59th St,NE,40.762835,-73.967554
10021,59th St,SE,40.762069,-73.968016
10021,59th St,NW,40.762986,-73.96785
zipcode,Station_Name,Corner,Latitude,Longitude
10035,Brook Av,NW,40.807747,-73.919347
10035,Brook Av,NE,40.80758,-73.918957
10035,125th St,NE,40.804407,-73.937234
10035,125th St,SW,40.804251,-73.937658
10035,125th St,SE,40.804164,-73.937444
10035,125th St,NW,40.804597,-73.9374
10035,125th St,NE,40.804517,-73.937186
10035,116th St,SW,40.798466,-73.941882
10035,116th St,NW,40.798852,-73.9416
10035,110th St,SW,40.794804,-73.944613
10035,110th St,NW,40.794927,-73.944502
10035,125th St,SW,40.807681,-73.945752
10035,125th St,NW,40.807995,-73.945524
10035,Cypress Av,SW,40.805171,-73.913933
10035,Brook Av,SW,40.807467,-73.919448
10035,Brook Av,SE,40.807355,-73.919219
10035,116th St,SE,40.798404,-73.941647
10035,116th St,NE,40.798742,-73.941406
10035,110th St,SE,40.794682,-73.944319
10035,110th St,NE,40.794811,-73.944235
10035,125th St,SE,40.807548,-73.945463
10035,125th St,NE,40.807875,-73.945229
zipcode,Station_Name,Corner,Latitude,Longitude
10004,Rector St,SE,40.707647,-74.012924
10004,Rector St,NE,40.707902,-74.012774
10004,Rector St,NE,40.708028,-74.012696
10004,Whitehall St,,40.701938,-74.012588
10004,Whitehall St,,40.702108,-74.012642
10004,Whitehall St,,40.702108,-74.012642
10004,Rector St,NE,40.708107,-74.013445
10004,Wall St,NW,40.706506,-74.009544
10004,Wall St,NE,40.706392,-74.009332
10004,Wall St,SE,40.70719,-74.011997
10004,Wall St,SE,40.707446,-74.011848
10004,Wall St,SE,40.707577,-74.011731
10004,Bowling Green,SW,40.704659,-74.01392
10004,Bowling Green,NW,40.704629,-74.013502
10004,South Ferry,,40.702033,-74.013149
10004,South Ferry,,40.702033,-74.013149
10004,South Ferry,,40.701961,-74.013397
10004,South Ferry,,40.701961,-74.013397
10004,Rector St,NE,40.706345,-74.014
10004,Rector St,SW,40.707495,-74.013273
10004,Rector St,SW,40.707659,-74.013166
10004,Rector St,NW,40.70795,-74.012963
10004,Rector St,NW,40.708083,-74.012863
10004,Rector St,NW,40.707225,-74.013454
10004,Whitehall St,,40.704015,-74.013284
10004,Whitehall St,,40.704114,-74.013
10004,Whitehall St,,40.704096,-74.013293
10004,Broad St,SE,40.706142,-74.011128
10004,Broad St,SE,40.705961,-74.011229
10004,Broad St,SW,40.706001,-74.011497
10004,Broad St,NW,40.706439,-74.011263
10004,Broad St,SW,40.705747,-74.011554
10004,Rector St,NW,40.706493,-74.014319
10004,Rector St,NE,40.706527,-74.014144
10004,Rector St,NE,40.706597,-74.014115
10004,Rector St,SW,40.707564,-74.013853
10004,Wall St,NW,40.707431,-74.008778
10004,Wall St,SW,40.706385,-74.009658
10004,Wall St,SE,40.706272,-74.009447
10004,Wall St,SE,40.706755,-74.008804
10004,Wall St,SE,40.708436,-74.011298
10004,Wall St,SW,40.707315,-74.012161
10004,Wall St,SW,40.707428,-74.012067
10004,Wall St,NW,40.707577,-74.011927
10004,Wall St,NW,40.707671,-74.011854
10004,Bowling Green,NW,40.704825,-74.014572
10004,Bowling Green,NW,40.704795,-74.014454
10004,Bowling Green,SW,40.704157,-74.014509
10004,Fulton St,NE,40.70863,-74.006999
10004,South Ferry,,40.701313,-74.013479
10004,Rector St,NW,40.708191,-74.013582
10004,Broad St,SE,40.708027,-74.009814
10004,Broad St,SE,40.706911,-74.010494
10004,Broad St,SW,40.707117,-74.010821
10004,Broad St,SE,40.706887,-74.010687
zipcode,Station_Name,Corner,Latitude,Longitude
10017,51st St,SW,40.757123,-73.972117
10017,51st St,NW,40.757293,-73.972108
10017,51st St,SW,40.757157,-73.972196
10017,51st St,NW,40.757298,-73.971939
10017,5th Av,SW,40.753409,-73.98113
10017,47-50th Sts Rockefeller Center,SE,40.757801,-73.981788
10017,47-50th Sts Rockefeller Center,SE,40.757862,-73.981735
10017,Lexington Av-53rd St,NE,40.757784,-73.971098
10017,Lexington Av-53rd St,NE,40.757804,-73.971141
10017,51st St,NW,40.756686,-73.97251
10017,51st St,SE,40.756999,-73.971803
10017,51st St,NE,40.757126,-73.971721
10017,51st St,SE,40.756964,-73.971712
10017,51st St,NE,40.757059,-73.97157
10017,Grand Central-42nd St,SE,40.751741,-73.977691
10017,Grand Central-42nd St,SE,40.751653,-73.977753
10017,Grand Central-42nd St,SW,40.751352,-73.976396
10017,Grand Central-42nd St,SE,40.751647,-73.977382
10017,Grand Central-42nd St,SW,40.750851,-73.975078
10017,Grand Central,NE,40.75283,-73.978917
10017,Grand Central,SE,40.752218,-73.978396
10017,Grand Central,SE,40.752279,-73.97828
10017,Grand Central,NW,40.752717,-73.978487
10017,Grand Central,SW,40.752184,-73.978048
10017,Grand Central,SW,40.752846,-73.979798
10017,Grand Central,NW,40.753087,-73.979537
10017,Grand Central-42nd St,SE,40.751721,-73.977197
10017,Lexington Av-53rd St,SE,40.757475,-73.969255
10017,Lexington Av-53rd St,NE,40.757718,-73.969161
10017,Lexington Av-53rd St,NE,40.757685,-73.969125
10017,Grand Central-42nd St,SE,40.751801,-73.975294
10017,Grand Central-42nd St,NE,40.751345,-73.975409
10017,Grand Central-42nd St,NW,40.751701,-73.976087
zipcode,Station_Name,Corner,Latitude,Longitude
10075,77th St,SW,40.773669,-73.960135
10075,77th St,NW,40.773779,-73.959954
10075,77th St,NW,40.773779,-73.960041
10075,77th St,SW,40.773636,-73.96006
10075,77th St,SE,40.773526,-73.959734
10075,77th St,NE,40.773631,-73.959659
10075,77th St,SE,40.773493,-73.959659
10075,77th St,NE,40.773603,-73.959578
zipcode,Station_Name,Corner,Latitude,Longitude
10026,116th St,SW,40.804312,-73.955643
10026,116th St,NW,40.804639,-73.955559
10026,Cathedral Parkway-110th St,SW,40.800002,-73.958882
10026,Cathedral Parkway-110th St,NE,40.800002,-73.958448
10026,116th St,SW,40.801945,-73.949943
10026,116th St,NW,40.802229,-73.949734
10026,110th St-Central Park North,NW,40.798497,-73.952672
10026,116th St,NE,40.804428,-73.955024
10026,116th St,SE,40.804172,-73.955131
10026,Cathedral Parkway-110th St,SW,40.800866,-73.958405
10026,116th St,SE,40.801822,-73.949651
10026,116th St,NE,40.802111,-73.949437
10026,110th St-Central Park North,NW,40.799033,-73.952058
zipcode,Station_Name,Corner,Latitude,Longitude
10024,103rd St,NW,40.796263,-73.96161
10024,96th St,SW,40.791642,-73.965009
10024,86th St,SW,40.785195,-73.969596
10024,86th St,SW,40.785282,-73.969662
10024,86th St,NW,40.78548,-73.969458
10024,81st St - Museum of Natural History,SW,40.781976,-73.972027
10024,81st St - Museum of Natural History,NW,40.782254,-73.971741
10024,116th St-Columbia University,NW,40.808251,-73.963955
10024,116th St-Columbia University,NE,40.808099,-73.963603
10024,116th St-Columbia University,NW,40.8084,-73.963845
10024,116th St-Columbia University,NE,40.808245,-73.963495
10024,Cathedral Parkway-110th St,NW,40.80439,-73.966786
10024,103rd St,NW,40.799282,-73.968679
10024,103rd St,NE,40.799142,-73.968314
10024,103rd St,NW,40.79941,-73.968612
10024,103rd St,NE,40.799223,-73.968271
10024,86th St,SW,40.788349,-73.976935
10024,86th St,NW,40.788515,-73.976718
10024,79th St,NW,40.784066,-73.980051
10024,79th St,SW,40.783765,-73.980274
10024,72nd St,NE,40.779146,-73.981822
10024,72nd St,NE,40.778875,-73.981877
10024,96th St,SW,40.792285,-73.964423
10024,96th St,NW,40.792591,-73.964316
10024,86th St,NW,40.786769,-73.968448
10024,86th St,NW,40.786115,-73.969011
10024,81st St - Museum of Natural History,NW,40.780895,-73.972918
10024,81st St - Museum of Natural History,NW,40.780319,-73.973179
10024,116th St-Columbia University,SE,40.807535,-73.964013
10024,Cathedral Parkway-110th St,SE,40.803926,-73.966647
10024,Cathedral Parkway-110th St,NE,40.804257,-73.966422
10024,96th St,N,40.794329,-73.972042
10024,86th St,SE,40.788073,-73.976288
10024,86th St,NE,40.788272,-73.976083
10024,79th St,SE,40.78362,-73.97991
10024,79th St,NE,40.783985,-73.979662
10024,103rd St,SE,40.799584,-73.968091
10024,96th St,SW,40.79307,-73.973174
10024,96th St,SE,40.792923,-73.972824
10024,96th St,SW,40.793209,-73.973074
10024,96th St,SE,40.793065,-73.972722
10024,86th St,NE,40.78902,-73.97633
10024,96th St,N,40.794611,-73.972053
zipcode,Station_Name,Corner,Latitude,Longitude
10037,135th St,SW,40.814024,-73.941117
10037,135th St,NW,40.814316,-73.94091
10037,135th St,SE,40.813896,-73.940831
10037,135th St,NE,40.814188,-73.940618
zipcode,Station_Name,Corner,Latitude,Longitude
10018,49th St,SW,40.760486,-73.983974
10018,49th St,NW,40.760621,-73.983904
10018,50th St,NW,40.761968,-73.986662
10018,50th St,NW,40.761968,-73.986662
10018,50th St,SW,40.761741,-73.986924
10018,50th St,SW,40.761691,-73.986805
10018,42nd St,NE,40.757286,-73.989582
10018,42nd St,SW,40.755989,-73.991049
10018,42nd St,SE,40.755801,-73.990576
10018,42nd St,NW,40.756101,-73.990887
10018,34th St,SE,40.75202,-73.993352
10018,34th St,NE,40.752161,-73.993109
10018,42nd St,SW,40.754849,-73.984627
10018,42nd St,SE,40.754609,-73.983894
10018,34th St,,40.749615,-73.988159
10018,34th St,SW,40.749845,-73.988254
10018,34th St,NW,40.750088,-73.988142
10018,50th St,SE,40.761111,-73.983436
10018,50th St,SE,40.761282,-73.983853
10018,50th St,NE,40.761212,-73.983357
10018,50th St,NE,40.761367,-73.983782
10018,Times Square,NW,40.756241,-73.987133
10018,Times Square,SW,40.756042,-73.987242
10018,34th St,SW,40.751046,-73.991271
10018,49th St,NE,40.760454,-73.983388
10018,49th St,SE,40.75903,-73.984412
10018,49th St,NE,40.759513,-73.984884
10018,49th St,NW,40.759384,-73.984709
10018,49th St,SE,40.760297,-73.983567
10018,Times Square-42nd St,SE,40.754172,-73.98668
10018,Times Square-42nd St,SW,40.754335,-73.987097
10018,Times Square-42nd St,NE,40.754301,-73.986623
10018,Times Square-42nd St,NW,40.754507,-73.987108
10018,34th St,SE,40.74959,-73.98762
10018,34th St,NE,40.749891,-73.987495
10018,50th St,SE,40.762085,-73.985829
10018,42nd St,SW,40.758567,-73.989053
10018,42nd St,SE,40.758401,-73.988673
10018,42nd St,NW,40.758685,-73.98899
10018,34th St,SE,40.752689,-73.992742
10018,34th St,NE,40.752796,-73.992669
10018,34th St,NE,40.752766,-73.992596
10018,34th St,SW,40.752877,-73.993244
10018,34th St,NW,40.753053,-73.993256
10018,34th St,NW,40.753032,-73.993188
10018,34th St,SW,40.752178,-73.993701
10018,34th St,NW,40.752427,-73.993679
10018,47-50th Sts Rockefeller Center,SW,40.758024,-73.982079
10018,42nd St,NW,40.753709,-73.985084
10018,42nd St,NW,40.755333,-73.983934
10018,42nd St,NW,40.755008,-73.984249
10018,42nd St,NE,40.754832,-73.983657
10018,42nd St,SW,40.753473,-73.985259
10018,42nd St,SE,40.753408,-73.984892
10018,42nd St,NE,40.753546,-73.984779
10018,34th St,SW,40.750674,-73.988031
10018,34th St,SE,40.750271,-73.987066
10018,34th St,NW,40.75088,-73.988096
10018,34th St,NW,40.750647,-73.987346
10018,34th St,NE,40.750404,-73.986989
10018,50th St,SW,40.761432,-73.98437
10018,50th St,NW,40.761561,-73.984154
10018,Times Square,SW,40.754691,-73.988067
10018,Times Square,SE,40.754568,-73.987827
10018,Times Square,NW,40.755554,-73.987679
10018,Times Square,SE,40.755575,-73.986311
10018,34th St,NE,40.749656,-73.99113
10018,34th St,SE,40.750077,-73.99082
10018,34th St,NE,40.750283,-73.99065
10018,34th St,NE,40.750313,-73.990854
10018,34th St,NW,40.750476,-73.991254
10018,34th St,SW,40.750982,-73.990899
10018,34th St,NW,40.751187,-73.990791
10018,Times Square,SW,40.756476,-73.986311
10018,42nd St,SW,40.757929,-73.989547
10018,42nd St,NW,40.757463,-73.989984
10018,5th Av,S,40.754175,-73.982871
10018,5th Av,S,40.754213,-73.982984
10018,34th St,SE,40.751291,-73.993887
10018,34th St,NE,40.751432,-73.993538
10018,34th St,NW,40.751677,-73.994107
10018,34th St,SW,40.751561,-73.994243
10018,34th St,SW,40.751539,-73.994181
10018,Times Square,SE,40.755747,-73.986875
10018,Times Square,SE,40.755248,-73.987362
10018,Times Square,SE,40.755334,-73.9872
10018,34th St,W,40.74979,-73.991721
10018,34th St,SE,40.75081,-73.990481
10018,34th St,NE,40.75102,-73.990323
zipcode,Station_Name,Corner,Latitude,Longitude
10034,Inwood - 207th St,NW,40.867892,-73.921234
10034,Inwood - 207th St,SW,40.867799,-73.921431
10034,Inwood - 207th St,SE,40.867512,-73.92133
10034,Inwood - 207th St,SW,40.867653,-73.920949
10034,Dyckman St-200th St,NW,40.865758,-73.927266
10034,Dyckman St-200th St,NW,40.865744,-73.927172
10034,Dyckman St-200th St,SW,40.865362,-73.928059
10034,190th St,NW,40.858899,-73.932702
10034,190th St,SE,40.858886,-73.934226
10034,181st St,SE,40.852759,-73.936636
10034,181st St,SE,40.850752,-73.93813
10034,215th St,SW,40.869412,-73.915455
10034,215th St,NW,40.869793,-73.91517
10034,207th St,NW,40.864745,-73.918864
10034,207th St,SW,40.864283,-73.919222
10034,Dyckman St,SW,40.861183,-73.92511
10034,Dyckman St,SW,40.861187,-73.925078
10034,191st St,SW,40.855374,-73.929536
10034,191st St,NE,40.856413,-73.932605
10034,Inwood - 207th St,NW,40.868284,-73.919607
10034,Inwood - 207th St,NE,40.868036,-73.919284
10034,Dyckman St-200th St,SE,40.865296,-73.927411
10034,Dyckman St-200th St,SE,40.865248,-73.927279
10034,Dyckman St-200th St,NE,40.865342,-73.926964
10034,Dyckman St-200th St,NE,40.865446,-73.927035
10034,181st St,SW,40.850778,-73.938472
10034,181st St,SE,40.850717,-73.938214
10034,181st St,SW,40.85087,-73.938537
10034,215th St,SE,40.869315,-73.915216
10034,207th St,SE,40.86423,-73.918951
10034,215th St,NE,40.869729,-73.914954
10034,207th St,NE,40.864599,-73.918681
zipcode,Station_Name,Corner,Latitude,Longitude
10036,57th St,SW,40.765365,-73.980341
10036,57th St,SE,40.765298,-73.980033
10036,49th St,SW,40.760486,-73.983974
10036,49th St,NW,40.760621,-73.983904
10036,50th St,NW,40.761968,-73.986662
10036,50th St,SW,40.762312,-73.986378
10036,50th St,NW,40.762452,-73.986299
10036,50th St,NW,40.761968,-73.986662
10036,50th St,SW,40.762312,-73.986378
10036,50th St,SW,40.761741,-73.986924
10036,50th St,SW,40.761691,-73.986805
10036,42nd St,NE,40.757286,-73.989582
10036,42nd St,SW,40.755989,-73.991049
10036,42nd St,SE,40.755801,-73.990576
10036,42nd St,NW,40.756101,-73.990887
10036,47-50th Sts Rockefeller Center,NW,40.759434,-73.981001
10036,47-50th Sts Rockefeller Center,SW,40.759896,-73.980706
10036,47-50th Sts Rockefeller Center,SW,40.760502,-73.980218
10036,47-50th Sts Rockefeller Center,NE,40.759953,-73.980117
10036,47-50th Sts Rockefeller Center,NW,40.760125,-73.980499
10036,47-50th Sts Rockefeller Center,NE,40.759301,-73.980594
10036,47-50th Sts Rockefeller Center,NW,40.759414,-73.981035
10036,47-50th Sts Rockefeller Center,SE,40.758996,-73.980788
10036,42nd St,SW,40.754849,-73.984627
10036,42nd St,SE,40.754609,-73.983894
10036,7th Av,NE,40.762937,-73.981578
10036,7th Av,SE,40.762793,-73.98169
10036,50th St,SE,40.761111,-73.983436
10036,50th St,SE,40.761282,-73.983853
10036,50th St,NE,40.761212,-73.983357
10036,50th St,NE,40.761367,-73.983782
10036,Times Square,NW,40.756241,-73.987133
10036,Times Square,SW,40.756042,-73.987242
10036,5th Av,SW,40.753409,-73.98113
10036,57th St,SW,40.764258,-73.981278
10036,57th St,SE,40.764057,-73.980803
10036,57th St,NW,40.764377,-73.981167
10036,57th St,NE,40.764179,-73.980683
10036,49th St,NE,40.760454,-73.983388
10036,49th St,SE,40.75903,-73.984412
10036,49th St,NE,40.759513,-73.984884
10036,49th St,NW,40.759384,-73.984709
10036,49th St,SE,40.760297,-73.983567
10036,Times Square-42nd St,SE,40.754172,-73.98668
10036,Times Square-42nd St,SW,40.754335,-73.987097
10036,Times Square-42nd St,NE,40.754301,-73.986623
10036,Times Square-42nd St,NW,40.754507,-73.987108
10036,50th St,SE,40.762085,-73.985829
10036,50th St,NE,40.762216,-73.985757
10036,42nd St,SW,40.758567,-73.989053
10036,42nd St,SE,40.758401,-73.988673
10036,42nd St,NW,40.758685,-73.98899
10036,34th St,SE,40.752689,-73.992742
10036,34th St,NE,40.752796,-73.992669
10036,34th St,NE,40.752766,-73.992596
10036,34th St,SW,40.752877,-73.993244
10036,34th St,NW,40.753053,-73.993256
10036,34th St,NW,40.753032,-73.993188
10036,34th St,NW,40.752427,-73.993679
10036,47-50th Sts Rockefeller Center,SW,40.758623,-73.981566
10036,47-50th Sts Rockefeller Center,W,40.758977,-73.981352
10036,47-50th Sts Rockefeller Center,W,40.759105,-73.981252
10036,47-50th Sts Rockefeller Center,SE,40.757801,-73.981788
10036,47-50th Sts Rockefeller Center,SW,40.758024,-73.982079
10036,47-50th Sts Rockefeller Center,NE,40.757981,-73.98154
10036,47-50th Sts Rockefeller Center,SE,40.757862,-73.981735
10036,47-50th Sts Rockefeller Center,SE,40.758486,-73.981158
10036,47-50th Sts Rockefeller Center,NE,40.758615,-73.981095
10036,42nd St,NW,40.753709,-73.985084
10036,42nd St,NW,40.755333,-73.983934
10036,42nd St,NW,40.755008,-73.984249
10036,42nd St,NE,40.754832,-73.983657
10036,42nd St,SW,40.753473,-73.985259
10036,42nd St,SE,40.753408,-73.984892
10036,42nd St,NE,40.753546,-73.984779
10036,7th Av,SE,40.763141,-73.982666
10036,7th Av,NE,40.763388,-73.982495
10036,50th St,SW,40.761432,-73.98437
10036,50th St,NW,40.761561,-73.984154
10036,Times Square,SW,40.754691,-73.988067
10036,Times Square,SE,40.754568,-73.987827
10036,Times Square,NW,40.755554,-73.987679
10036,Times Square,SE,40.755575,-73.986311
10036,Times Square,SW,40.756476,-73.986311
10036,Grand Central,NE,40.75283,-73.978917
10036,Grand Central,SE,40.752218,-73.978396
10036,Grand Central,SE,40.752279,-73.97828
10036,Grand Central,NW,40.752717,-73.978487
10036,50th St,NE,40.7629,-73.985412
10036,42nd St,SW,40.757929,-73.989547
10036,42nd St,NW,40.757463,-73.989984
10036,5th Av,S,40.754175,-73.982871
10036,5th Av,S,40.754213,-73.982984
10036,Grand Central,SW,40.752846,-73.979798
10036,Grand Central,NW,40.753087,-73.979537
10036,Times Square,SE,40.755747,-73.986875
10036,Times Square,SE,40.755248,-73.987362
10036,Times Square,SE,40.755334,-73.9872
zipcode,Station_Name,Corner,Latitude,Longitude
10044,21st St,NW,40.754322,-73.942374
10044,21st St,NW,40.754131,-73.942491
10044,21st St,NW,40.754195,-73.942521
10044,21st St,NE,40.754069,-73.942132
10044,21st St,NE,40.754255,-73.941935
10044,Roosevelt Island,SE,40.759016,-73.953505
10044,Queensboro Plaza,SW,40.750302,-73.940245
zipcode,Station_Name,Corner,Latitude,Longitude
10065,5th Av,NW,40.765156,-73.972501
10065,5th Av,SE,40.764728,-73.972396
10065,5th Av,NE,40.764849,-73.972306
10065,5th Av,SE,40.764657,-73.972229
10065,Lexington Av,NW,40.764884,-73.966514
10065,Lexington Av,NW,40.764874,-73.966431
10065,Lexington Av,NW,40.764881,-73.966411
10065,Lexington Av,SW,40.764721,-73.966552
10065,Lexington Av,NW,40.764866,-73.966422
10065,68th St-Hunter College,SW,40.76787,-73.964244
10065,68th St-Hunter College,SW,40.767817,-73.964355
10065,68th St-Hunter College,SE,40.767703,-73.963979
10065,68th St-Hunter College,NW,40.767981,-73.964178
10065,68th St-Hunter College,NE,40.767863,-73.963898
10065,59th St,SW,40.762836,-73.96804
10065,Lexington Av,SW,40.762092,-73.96634
10065,Lexington Av,NW,40.762353,-73.966155
10065,Lexington Av,SE,40.761996,-73.966105
10065,Lexington Av,NE,40.762255,-73.965918
10065,59th St,SE,40.76266,-73.967625
10065,59th St,NW,40.762414,-73.968371
10065,59th St,SW,40.762266,-73.968479
10065,59th St,NE,40.762835,-73.967554
10065,59th St,SE,40.762069,-73.968016
10065,59th St,NW,40.762986,-73.96785
zipcode,Station_Name,Corner,Latitude,Longitude
10010,28th St,SE,40.745089,-73.988472
10010,28th St,NE,40.745299,-73.988579
10010,23rd St,SE,40.74108,-73.989083
10010,23rd St,SE,40.741111,-73.98892
10010,23rd St,NE,40.741378,-73.988895
10010,23rd St,NE,40.741539,-73.988989
10010,Union Square,NE,40.735278,-73.991058
10010,3rd Av,SE,40.732961,-73.986657
10010,3rd Av,SE,40.733134,-73.987041
10010,23rd St,SE,40.742659,-73.992489
10010,23rd St,SE,40.742715,-73.992617
10010,23rd St,NE,40.74288,-73.992506
10010,23rd St,NE,40.742825,-73.992383
10010,28th St,SE,40.743128,-73.983806
10010,28th St,SE,40.743167,-73.983896
10010,28th St,NE,40.743304,-73.983857
10010,28th St,NE,40.743257,-73.983738
10010,23rd St,SE,40.740008,-73.986233
10010,23rd St,SE,40.739984,-73.986343
10010,23rd St,NE,40.74018,-73.986006
10010,14th St-Union Square,NE,40.734406,-73.989437
10010,14th St-Union Square,SE,40.73418,-73.989549
10010,14th St-Union Square,SE,40.734222,-73.989674
10010,28th St,SW,40.745281,-73.988923
10010,23rd St,NE,40.740643,-73.989217
10010,23rd St,NE,40.741208,-73.989639
10010,23rd St,NW,40.741913,-73.989428
10010,23rd St,NW,40.740758,-73.989632
10010,Union Square,SE,40.736339,-73.990603
10010,Union Square,NE,40.736523,-73.990447
10010,Union Square,SW,40.734755,-73.990991
10010,Union Square,SW,40.734859,-73.991235
10010,3rd Av,NE,40.733122,-73.986548
10010,3rd Av,NE,40.733277,-73.986931
10010,23rd St,NW,40.743121,-73.993099
10010,23rd St,NW,40.743066,-73.992971
10010,23rd St,SW,40.742977,-73.993188
10010,23rd St,SW,40.742922,-73.993066
10010,28th St,NW,40.743484,-73.98428
10010,28th St,SW,40.743394,-73.984409
10010,28th St,SW,40.743351,-73.984302
10010,23rd St,NW,40.740419,-73.986452
10010,23rd St,SW,40.739501,-73.987134
10010,23rd St,SW,40.740097,-73.986601
10010,23rd St,SW,40.74018,-73.986617
10010,23rd St,NW,40.739674,-73.98704
10010,23rd St,NE,40.739477,-73.986562
10010,14th St-Union Square,SW,40.735184,-73.989793
10010,14th St-Union Square,SW,40.734495,-73.990311
10010,14th St-Union Square,SW,40.734444,-73.990184
10010,Union Square,SW,40.735311,-73.990265
zipcode,Station_Name,Corner,Latitude,Longitude
10023,72nd St,SW,40.776217,-73.976247
10023,72nd St,NW,40.776431,-73.975977
10023,72nd St,NE,40.779146,-73.981822
10023,72nd St,NE,40.778875,-73.981877
10023,66th St-Lincoln Center,SE,40.773738,-73.982448
10023,66th St-Lincoln Center,SE,40.773829,-73.982433
10023,66th St-Lincoln Center,SE,40.773576,-73.982425
10023,72nd St,SW,40.77494,-73.977144
10023,59th St,NE,40.768649,-73.981184
10023,72nd St,SE,40.778585,-73.981923
10023,66th St-Lincoln Center,SE,40.773536,-73.982006
10023,66th St-Lincoln Center,SE,40.773457,-73.982004
10023,66th St-Lincoln Center,SE,40.773682,-73.982015
10023,59th St-Columbus Circle,SW,40.768777,-73.982106
10023,59th St-Columbus Circle,SE,40.769227,-73.9824
10023,59th St-Columbus Circle,SE,40.769365,-73.982392
10023,59th St,West,40.768719,-73.981788
10023,72nd St,SE,40.778437,-73.981947
zipcode,Station_Name,Corner,Latitude,Longitude
10022,5th Av,SE,40.764728,-73.972396
10022,5th Av,NE,40.764849,-73.972306
10022,5th Av,SE,40.764657,-73.972229
10022,Lexington Av,NW,40.764884,-73.966514
10022,Lexington Av,NW,40.764874,-73.966431
10022,Lexington Av,NW,40.764881,-73.966411
10022,Lexington Av,SW,40.764721,-73.966552
10022,Lexington Av,NW,40.764866,-73.966422
10022,57th St,NE,40.763874,-73.977358
10022,57th St,SW,40.764227,-73.97743
10022,57th St,SE,40.763998,-73.977264
10022,57th St,NW,40.764652,-73.977119
10022,57th St,NE,40.764564,-73.97683
10022,Lexington Av-53rd St,NE,40.758329,-73.970567
10022,Lexington Av-53rd St,SE,40.75812,-73.970958
10022,5th Av-53rd St,SW,40.760422,-73.976146
10022,5th Av-53rd St,NE,40.760373,-73.975562
10022,5th Av-53rd St,SE,40.760267,-73.975638
10022,59th St,SW,40.762836,-73.96804
10022,51st St,SW,40.757123,-73.972117
10022,51st St,NW,40.757293,-73.972108
10022,51st St,SW,40.757157,-73.972196
10022,51st St,NW,40.757298,-73.971939
10022,Lexington Av,SW,40.762092,-73.96634
10022,Lexington Av,NW,40.762353,-73.966155
10022,Lexington Av,SE,40.761996,-73.966105
10022,Lexington Av,NE,40.762255,-73.965918
10022,5th Av,SW,40.764599,-73.974228
10022,5th Av,NE,40.764859,-73.973998
10022,Lexington Av-53rd St,NE,40.757784,-73.971098
10022,Lexington Av-53rd St,NE,40.757804,-73.971141
10022,5th Av-53rd St,NE,40.759721,-73.973858
10022,5th Av-53rd St,SE,40.759556,-73.974068
10022,59th St,SE,40.76266,-73.967625
10022,59th St,NW,40.762414,-73.968371
10022,59th St,SW,40.762266,-73.968479
10022,59th St,NE,40.762835,-73.967554
10022,59th St,SE,40.762069,-73.968016
10022,51st St,NW,40.756686,-73.97251
10022,51st St,SE,40.756999,-73.971803
10022,51st St,NE,40.757126,-73.971721
10022,51st St,SE,40.756964,-73.971712
10022,51st St,NE,40.757059,-73.97157
10022,Grand Central-42nd St,SE,40.751721,-73.977197
10022,Lexington Av-53rd St,SE,40.757475,-73.969255
10022,Lexington Av-53rd St,NE,40.757718,-73.969161
10022,Lexington Av-53rd St,NE,40.757685,-73.969125
10022,Grand Central-42nd St,SE,40.751801,-73.975294
10022,59th St,NW,40.762986,-73.96785
zipcode,Station_Name,Corner,Latitude,Longitude
10031,155th St,SW,40.830744,-73.941597
10031,155th St,SW,40.830854,-73.941638
10031,155th St,NW,40.831106,-73.94155
10031,155th St,NW,40.831139,-73.941447
10031,155th St,NE,40.831031,-73.941149
10031,155th St,NE,40.830921,-73.9411
10031,145th St,SE,40.823791,-73.944726
10031,145th St,SW,40.823915,-73.945027
10031,145th St,NW,40.824244,-73.944931
10031,145th St,NE,40.824028,-73.944409
10031,157th St,NW,40.834268,-73.945183
10031,157th St,NW,40.834221,-73.945073
10031,145th St,NE,40.826657,-73.95052
10031,137th St-City College,NW,40.821584,-73.954223
10031,137th St-City College,SW,40.821348,-73.954408
10031,145th St,NW,40.825622,-73.943796
10031,145th St,NE,40.825581,-73.943444
10031,135th St,SW,40.818558,-73.947543
10031,135th St,SE,40.818354,-73.947213
10031,157th St,SE,40.83386,-73.94462
10031,157th St,SE,40.833832,-73.944753
10031,145th St,SW,40.826199,-73.950392
10031,145th St,NW,40.826513,-73.950162
10031,137th St-City College,NE,40.821454,-73.953856
10031,137th St-City College,NE,40.821391,-73.953906
zipcode,Station_Name,Corner,Latitude,Longitude
10280,Bowling Green,SW,40.704659,-74.01392
10280,Rector St,NE,40.706345,-74.014
10280,Rector St,NW,40.706493,-74.014319
10280,Rector St,NE,40.706527,-74.014144
10280,Rector St,NE,40.706597,-74.014115
10280,Rector St,SW,40.707564,-74.013853
10280,Bowling Green,NW,40.704825,-74.014572
10280,Bowling Green,NW,40.704795,-74.014454
10280,Bowling Green,SW,40.704157,-74.014509
zipcode,Station_Name,Corner,Latitude,Longitude
10033,190th St,NW,40.858899,-73.932702
10033,190th St,SE,40.858886,-73.934226
10033,181st St,SE,40.852759,-73.936636
10033,181st St,SE,40.850752,-73.93813
10033,175th St,NE,40.847946,-73.939375
10033,175th St,SW,40.847809,-73.939807
10033,175th St,NW,40.847944,-73.939679
10033,175th St,NE,40.847859,-73.939303
10033,175th St,NW,40.847992,-73.939564
10033,Dyckman St,SW,40.861183,-73.92511
10033,Dyckman St,SW,40.861187,-73.925078
10033,191st St,SW,40.855374,-73.929536
10033,191st St,NE,40.856413,-73.932605
10033,181st St,NE,40.849435,-73.933428
10033,181st St,SE,40.849098,-73.933747
10033,181st St,SW,40.850778,-73.938472
10033,181st St,SE,40.850717,-73.938214
10033,181st St,SW,40.85087,-73.938537
10033,175th St,SW,40.846352,-73.940287
10033,175th St,SE,40.846407,-73.939861
zipcode,Station_Name,Corner,Latitude,Longitude
10001,28th St,SE,40.745089,-73.988472
10001,28th St,NE,40.745299,-73.988579
10001,42nd St,NE,40.757286,-73.989582
10001,42nd St,SW,40.755989,-73.991049
10001,42nd St,SE,40.755801,-73.990576
10001,42nd St,NW,40.756101,-73.990887
10001,34th St,SE,40.75202,-73.993352
10001,34th St,NE,40.752161,-73.993109
10001,23rd St,SE,40.745102,-73.998365
10001,23rd St,NE,40.745299,-73.998145
10001,42nd St,SW,40.754849,-73.984627
10001,34th St,,40.749615,-73.988159
10001,34th St,SW,40.749845,-73.988254
10001,34th St,NW,40.750088,-73.988142
10001,Times Square,NW,40.756241,-73.987133
10001,Times Square,SW,40.756042,-73.987242
10001,34th St,SW,40.751046,-73.991271
10001,23rd St,SE,40.74391,-73.995608
10001,23rd St,NE,40.74412,-73.995348
10001,49th St,SE,40.75903,-73.984412
10001,49th St,NE,40.759513,-73.984884
10001,49th St,NW,40.759384,-73.984709
10001,Times Square-42nd St,SE,40.754172,-73.98668
10001,Times Square-42nd St,SW,40.754335,-73.987097
10001,Times Square-42nd St,NE,40.754301,-73.986623
10001,Times Square-42nd St,NW,40.754507,-73.987108
10001,34th St,SE,40.74959,-73.98762
10001,34th St,NE,40.749891,-73.987495
10001,34th St,NE,40.748294,-73.987976
10001,34th St,NW,40.748477,-73.988288
10001,28th St,SW,40.745281,-73.988923
10001,28th St,NW,40.745488,-73.98901
10001,42nd St,SW,40.758567,-73.989053
10001,42nd St,SE,40.758401,-73.988673
10001,42nd St,NW,40.758685,-73.98899
10001,34th St,SE,40.752689,-73.992742
10001,34th St,NE,40.752796,-73.992669
10001,34th St,NE,40.752766,-73.992596
10001,34th St,SW,40.752877,-73.993244
10001,34th St,NW,40.753053,-73.993256
10001,34th St,NW,40.753032,-73.993188
10001,34th St,SW,40.752178,-73.993701
10001,34th St,NW,40.752427,-73.993679
10001,23rd St,NW,40.746732,-73.997711
10001,23rd St,SW,40.746603,-73.997801
10001,23rd St,SW,40.745278,-73.998771
10001,23rd St,NW,40.745505,-73.998642
10001,23rd St,NE,40.746535,-73.997271
10001,23rd St,NE,40.746483,-73.997142
10001,23rd St,NW,40.74611,-73.998145
10001,23rd St,SE,40.745814,-73.997852
10001,23rd St,SE,40.746427,-73.99735
10001,42nd St,NW,40.753709,-73.985084
10001,42nd St,NW,40.755008,-73.984249
10001,42nd St,SW,40.753473,-73.985259
10001,42nd St,SE,40.753408,-73.984892
10001,42nd St,NE,40.753546,-73.984779
10001,34th St,SW,40.750674,-73.988031
10001,34th St,SE,40.750271,-73.987066
10001,34th St,NW,40.75088,-73.988096
10001,34th St,NW,40.750647,-73.987346
10001,34th St,NE,40.750404,-73.986989
10001,Times Square,SW,40.754691,-73.988067
10001,Times Square,SE,40.754568,-73.987827
10001,Times Square,NW,40.755554,-73.987679
10001,Times Square,SE,40.755575,-73.986311
10001,34th St,NE,40.749656,-73.99113
10001,34th St,SE,40.750077,-73.99082
10001,34th St,NE,40.750283,-73.99065
10001,34th St,NE,40.750313,-73.990854
10001,34th St,NW,40.750476,-73.991254
10001,34th St,SW,40.750982,-73.990899
10001,34th St,NW,40.751187,-73.990791
10001,28th St,SW,40.747264,-73.993611
10001,28th St,NW,40.747392,-73.99351
10001,28th St,NW,40.746787,-73.993955
10001,28th St,NE,40.746594,-73.993555
10001,23rd St,SW,40.744017,-73.995901
10001,23rd St,NW,40.744313,-73.995811
10001,28th St,NW,40.743484,-73.98428
10001,Times Square,SW,40.756476,-73.986311
10001,42nd St,SW,40.757929,-73.989547
10001,42nd St,NW,40.757463,-73.989984
10001,34th St,SE,40.751291,-73.993887
10001,34th St,NE,40.751432,-73.993538
10001,34th St,NW,40.751677,-73.994107
10001,34th St,SW,40.751561,-73.994243
10001,34th St,SW,40.751539,-73.994181
10001,34th St,SW,40.74895,-73.988623
10001,34th St,NW,40.748746,-73.988774
10001,Times Square,SE,40.755747,-73.986875
10001,Times Square,SE,40.755248,-73.987362
10001,Times Square,SE,40.755334,-73.9872
10001,34th St,W,40.74979,-73.991721
10001,34th St,SE,40.75081,-73.990481
10001,34th St,NE,40.75102,-73.990323
10001,28th St,SE,40.747036,-73.993138
10001,28th St,NE,40.747216,-73.993121
zipcode,Station_Name,Corner,Latitude,Longitude
10009,3rd Av,SE,40.732961,-73.986657
10009,3rd Av,SE,40.733134,-73.987041
10009,1st Av,NE,40.731397,-73.982112
10009,1st Av,NE,40.731483,-73.982145
10009,Delancey St,NW,40.718781,-73.988233
10009,Delancey St,NE,40.718778,-73.987961
10009,3rd Av,NE,40.733122,-73.986548
10009,3rd Av,NE,40.733277,-73.986931
10009,1st Av,SE,40.73105,-73.982625
10009,1st Av,SE,40.731118,-73.982563
zipcode,Station_Name,Corner,Latitude,Longitude
10029,116th St,SW,40.798466,-73.941882
10029,116th St,NW,40.798852,-73.9416
10029,110th St,SW,40.794804,-73.944613
10029,110th St,NW,40.794927,-73.944502
10029,103rd St,SW,40.790279,-73.947856
10029,103rd St,SE,40.790193,-73.947649
10029,96th St,SW,40.785843,-73.951232
10029,96th St,SE,40.78564,-73.95093
10029,96th St,NW,40.786055,-73.951057
10029,96th St,NE,40.785903,-73.950695
10029,110th St-Central Park North,NW,40.798497,-73.952672
10029,116th St,SE,40.798404,-73.941647
10029,116th St,NE,40.798742,-73.941406
10029,110th St,SE,40.794682,-73.944319
10029,110th St,NE,40.794811,-73.944235
10029,110th St-Central Park North,NW,40.799033,-73.952058
zipcode,Station_Name,Corner,Latitude,Longitude
10019,57th St,SW,40.765365,-73.980341
10019,57th St,SE,40.765298,-73.980033
10019,57th St,NW,40.765796,-73.980012
10019,57th St,NE,40.765639,-73.979764
10019,49th St,SW,40.760486,-73.983974
10019,49th St,NW,40.760621,-73.983904
10019,59th St,NW,40.766944,-73.982941
10019,59th St,SE,40.766488,-73.982708
10019,59th St,NW,40.767667,-73.982408
10019,59th St,NW,40.767677,-73.982526
10019,59th St,NW,40.767659,-73.982542
10019,59th St,NE,40.766725,-73.982563
10019,59th St,NW,40.767643,-73.982563
10019,59th St,NW,40.766745,-73.983408
10019,59th St,NW,40.766416,-73.983301
10019,59th St,NE,40.767367,-73.982137
10019,50th St,NW,40.761968,-73.986662
10019,50th St,SW,40.762312,-73.986378
10019,50th St,NW,40.762452,-73.986299
10019,50th St,NW,40.761968,-73.986662
10019,50th St,SW,40.762312,-73.986378
10019,50th St,SW,40.761741,-73.986924
10019,50th St,SW,40.761691,-73.986805
10019,57th St,NE,40.763874,-73.977358
10019,57th St,SW,40.764227,-73.97743
10019,57th St,SE,40.763998,-73.977264
10019,57th St,NW,40.764652,-73.977119
10019,57th St,NE,40.764564,-73.97683
10019,57th St,SW,40.763482,-73.977974
10019,57th St,SE,40.763392,-73.977674
10019,57th St,NW,40.763831,-73.977718
10019,47-50th Sts Rockefeller Center,NW,40.759434,-73.981001
10019,47-50th Sts Rockefeller Center,SW,40.759896,-73.980706
10019,47-50th Sts Rockefeller Center,SW,40.760502,-73.980218
10019,47-50th Sts Rockefeller Center,NE,40.759953,-73.980117
10019,47-50th Sts Rockefeller Center,NW,40.760125,-73.980499
10019,47-50th Sts Rockefeller Center,NE,40.759301,-73.980594
10019,47-50th Sts Rockefeller Center,NW,40.759414,-73.981035
10019,47-50th Sts Rockefeller Center,SE,40.758996,-73.980788
10019,5th Av-53rd St,SW,40.760422,-73.976146
10019,5th Av-53rd St,NE,40.760373,-73.975562
10019,5th Av-53rd St,SE,40.760267,-73.975638
10019,7th Av,NE,40.762937,-73.981578
10019,7th Av,SE,40.762793,-73.98169
10019,50th St,SE,40.761111,-73.983436
10019,50th St,SE,40.761282,-73.983853
10019,50th St,NE,40.761212,-73.983357
10019,50th St,NE,40.761367,-73.983782
10019,5th Av,SW,40.764599,-73.974228
10019,5th Av,NE,40.764935,-73.974191
10019,5th Av,NE,40.764859,-73.973998
10019,57th St,SW,40.764258,-73.981278
10019,57th St,SE,40.764057,-73.980803
10019,57th St,NW,40.764377,-73.981167
10019,57th St,NE,40.764179,-73.980683
10019,49th St,NE,40.760454,-73.983388
10019,49th St,SE,40.75903,-73.984412
10019,49th St,NE,40.759513,-73.984884
10019,49th St,NW,40.759384,-73.984709
10019,49th St,SE,40.760297,-73.983567
10019,59th St,NE,40.768649,-73.981184
10019,50th St,SE,40.762085,-73.985829
10019,50th St,NE,40.762216,-73.985757
10019,42nd St,NW,40.758685,-73.98899
10019,47-50th Sts Rockefeller Center,W,40.758977,-73.981352
10019,47-50th Sts Rockefeller Center,W,40.759105,-73.981252
10019,5th Av-53rd St,NE,40.759721,-73.973858
10019,5th Av-53rd St,SE,40.759556,-73.974068
10019,7th Av,SE,40.763141,-73.982666
10019,7th Av,NE,40.763388,-73.982495
10019,59th St-Columbus Circle,SW,40.768777,-73.982106
10019,59th St-Columbus Circle,SE,40.769227,-73.9824
10019,59th St-Columbus Circle,SE,40.769365,-73.982392
10019,50th St,SW,40.761432,-73.98437
10019,50th St,NW,40.761561,-73.984154
10019,50th St,NE,40.7629,-73.985412
10019,59th St,West,40.768719,-73.981788
10019,59th St-Columbus Circle,SE,40.767654,-73.981423
10019,59th St-Columbus Circle,SE,40.767642,-73.981235
zipcode,Station_Name,Corner,Latitude,Longitude
10016,33rd St,SE,40.746263,-73.981663
10016,33rd St,SE,40.746242,-73.9816
10016,33rd St,NE,40.74655,-73.981533
10016,28th St,SE,40.743128,-73.983806
10016,28th St,SE,40.743167,-73.983896
10016,28th St,NE,40.743304,-73.983857
10016,28th St,NE,40.743257,-73.983738
10016,23rd St,SE,40.740008,-73.986233
10016,23rd St,SE,40.739984,-73.986343
10016,23rd St,NE,40.74018,-73.986006
10016,34th St,SE,40.74959,-73.98762
10016,34th St,NE,40.749891,-73.987495
10016,34th St,SE,40.750271,-73.987066
10016,34th St,NW,40.750647,-73.987346
10016,34th St,NE,40.750404,-73.986989
10016,Grand Central-42nd St,SE,40.751741,-73.977691
10016,Grand Central-42nd St,SE,40.751653,-73.977753
10016,Grand Central-42nd St,SW,40.751352,-73.976396
10016,Grand Central-42nd St,SE,40.751647,-73.977382
10016,33rd St,SE,40.745585,-73.982198
10016,33rd St,SE,40.745641,-73.982103
10016,33rd St,SW,40.746447,-73.982147
10016,33rd St,NW,40.746632,-73.981882
10016,33rd St,SW,40.745723,-73.982531
10016,33rd St,SW,40.745821,-73.982576
10016,28th St,NW,40.743484,-73.98428
10016,28th St,SW,40.743394,-73.984409
10016,28th St,SW,40.743351,-73.984302
10016,23rd St,NW,40.740419,-73.986452
10016,23rd St,SW,40.739501,-73.987134
10016,23rd St,SW,40.740097,-73.986601
10016,23rd St,SW,40.74018,-73.986617
10016,23rd St,NW,40.739674,-73.98704
10016,23rd St,NE,40.739477,-73.986562
10016,Grand Central-42nd St,SW,40.750851,-73.975078
10016,Grand Central,SW,40.752184,-73.978048
10016,Grand Central-42nd St,SE,40.751721,-73.977197
10016,Grand Central-42nd St,SE,40.751801,-73.975294
10016,Grand Central-42nd St,NE,40.751345,-73.975409
10016,Grand Central-42nd St,NW,40.751701,-73.976087
zipcode,Station_Name,Corner,Latitude,Longitude
10014,8th Av,SE,40.73955,-74.002389
10014,8th Av,SW,40.739734,-74.002804
10014,14th St,SW,40.740938,-74.001919
10014,14th St,NW,40.741235,-74.001715
10014,14th St,SE,40.740944,-74.001402
10014,14th St,NE,40.741046,-74.001284
10014,14th St,NW,40.739949,-74.002655
10014,West 4th St,,40.731086,-74.001209
10014,West 4th St,NW,40.731133,-74.001534
10014,West 4th St,NE,40.731091,-74.001127
10014,Spring St,NE,40.725583,-74.003747
10014,14th St,SW,40.738484,-73.999914
10014,14th St,NW,40.738775,-73.999711
10014,Christopher St,SE,40.733402,-74.002748
10014,Houston St,SE,40.728472,-74.005188
10014,Houston St,NE,40.728656,-74.005086
10014,West 4th St,NE,40.733067,-73.999728
10014,West 4th St,NE,40.733259,-73.999615
10014,West 4th St,NW,40.733072,-74.000192
10014,Spring St,NW,40.725595,-74.004326
10014,Spring St,SW,40.726208,-74.00399
10014,14th St,SE,40.738358,-73.999656
10014,14th St,NW,40.738013,-74.000329
10014,14th St,NW,40.737388,-74.000815
10014,14th St,NE,40.737197,-74.0004
10014,Christopher St,SW,40.733515,-74.003147
10014,Christopher St,SW,40.733467,-74.003076
10014,Christopher St,NW,40.733634,-74.003123
10014,Christopher St,NW,40.733652,-74.003006
10014,Houston St,SE,40.727739,-74.005305
10014,Houston St,NE,40.727989,-74.005258
10014,Houston St,SW,40.72784,-74.005681
10014,Houston St,NW,40.727983,-74.00565
10014,Houston St,SW,40.728561,-74.00554
10014,Houston St,NW,40.728686,-74.005517
10014,14th St,NE,40.74041,-74.00175
10014,14th St,NW,40.740598,-74.002185
10014,14th St,NE,40.739776,-74.002256
10014,14th St,NE,40.737846,-73.99993
zipcode,Station_Name,Corner,Latitude,Longitude
10128,96th St,SW,40.785843,-73.951232
10128,96th St,SE,40.78564,-73.95093
10128,96th St,NW,40.786055,-73.951057
10128,96th St,NE,40.785903,-73.950695
10128,86th St,SW,40.779468,-73.955905
10128,86th St,NW,40.779718,-73.955719
10128,86th St,SW,40.779427,-73.95581
10128,86th St,NW,40.77972,-73.955596
10128,86th St,NE,40.779661,-73.955302
10128,86th St,NE,40.779577,-73.955304
10128,86th St,SE,40.779284,-73.955443
10128,86th St,SE,40.77933,-73.955545
10128,77th St,SE,40.773526,-73.959734
10128,77th St,NE,40.773631,-73.959659
10128,77th St,SE,40.773493,-73.959659
10128,77th St,NE,40.773603,-73.959578
zipcode,Station_Name,Corner,Latitude,Longitude
10025,116th St,SW,40.804312,-73.955643
10025,116th St,NW,40.804639,-73.955559
10025,Cathedral Parkway-110th St,SW,40.800002,-73.958882
10025,Cathedral Parkway-110th St,NE,40.800002,-73.958448
10025,103rd St,NW,40.796263,-73.96161
10025,96th St,SW,40.791642,-73.965009
10025,116th St-Columbia University,NW,40.808251,-73.963955
10025,116th St-Columbia University,NE,40.808099,-73.963603
10025,116th St-Columbia University,NW,40.8084,-73.963845
10025,116th St-Columbia University,NE,40.808245,-73.963495
10025,Cathedral Parkway-110th St,NW,40.80439,-73.966786
10025,103rd St,NW,40.799282,-73.968679
10025,103rd St,NE,40.799142,-73.968314
10025,103rd St,NW,40.79941,-73.968612
10025,103rd St,NE,40.799223,-73.968271
10025,86th St,NW,40.788515,-73.976718
10025,116th St,NE,40.804428,-73.955024
10025,116th St,SE,40.804172,-73.955131
10025,Cathedral Parkway-110th St,SW,40.800866,-73.958405
10025,96th St,SW,40.792285,-73.964423
10025,96th St,NW,40.792591,-73.964316
10025,116th St-Columbia University,SE,40.807535,-73.964013
10025,Cathedral Parkway-110th St,SE,40.803926,-73.966647
10025,Cathedral Parkway-110th St,NE,40.804257,-73.966422
10025,96th St,N,40.794329,-73.972042
10025,103rd St,SE,40.799584,-73.968091
10025,96th St,SW,40.79307,-73.973174
10025,96th St,SE,40.792923,-73.972824
10025,96th St,SW,40.793209,-73.973074
10025,96th St,SE,40.793065,-73.972722
10025,86th St,NE,40.78902,-73.97633
10025,96th St,N,40.794611,-73.972053
zipcode,Station_Name,Corner,Latitude,Longitude
10039,168th St - Washington Heights,SE,40.840741,-73.939252
10039,163rd St - Amsterdam Av,SE,40.835192,-73.940146
10039,163rd St - Amsterdam Av,NE,40.835278,-73.939625
10039,163rd St - Amsterdam Av,SW,40.835936,-73.940137
10039,155th St,SW,40.830744,-73.941597
10039,155th St,SW,40.830854,-73.941638
10039,155th St,NW,40.831106,-73.94155
10039,155th St,NW,40.831139,-73.941447
10039,155th St,NE,40.831031,-73.941149
10039,155th St,NE,40.830921,-73.9411
10039,155th St,NW,40.830313,-73.936687
10039,Harlem-148th St,NE,40.824069,-73.936981
10039,145th St,SW,40.820343,-73.936508
10039,145th St,NW,40.820662,-73.936275
10039,175th St,SW,40.846352,-73.940287
10039,175th St,SE,40.846407,-73.939861
10039,168th St - Washington Heights,NW,40.84186,-73.939569
10039,168th St - Washington Heights,NW,40.841928,-73.939455
10039,168th St - Washington Heights,NE,40.84176,-73.939067
10039,145th St,NE,40.825581,-73.943444
10039,168th St,SW,40.840859,-73.940209
10039,168th St,,40.841024,-73.940083
10039,168th St,SE,40.840717,-73.93972
10039,145th St,SE,40.820161,-73.936253
10039,145th St,NE,40.820602,-73.935933
zipcode,Station_Name,Corner,Latitude,Longitude
10006,Cortlandt St,NE,40.710871,-74.010767
10006,Cortlandt St,SE,40.711065,-74.010644
10006,Rector St,SE,40.707647,-74.012924
10006,Rector St,NE,40.707902,-74.012774
10006,Rector St,NE,40.708028,-74.012696
10006,World Trade Center,,40.711793,-74.010165
10006,World Trade Center,,40.71171,-74.010204
10006,World Trade Center,NW,40.712258,-74.010306
10006,Rector St,NE,40.708107,-74.013445
10006,Wall St,SE,40.70719,-74.011997
10006,Wall St,SE,40.707446,-74.011848
10006,Wall St,SE,40.707577,-74.011731
10006,Cortlandt St,SE,40.710201,-74.011198
10006,Cortlandt St,NE,40.710435,-74.011066
10006,Rector St,NE,40.706345,-74.014
10006,Rector St,SW,40.707495,-74.013273
10006,Rector St,SW,40.707659,-74.013166
10006,Rector St,NW,40.70795,-74.012963
10006,Rector St,NW,40.708083,-74.012863
10006,Rector St,NW,40.707225,-74.013454
10006,Broad St,SE,40.706142,-74.011128
10006,Broad St,SE,40.705961,-74.011229
10006,Broad St,SW,40.706001,-74.011497
10006,Broad St,NW,40.706439,-74.011263
10006,Rector St,NW,40.706493,-74.014319
10006,Rector St,NE,40.706527,-74.014144
10006,Rector St,NE,40.706597,-74.014115
10006,Rector St,SW,40.707564,-74.013853
10006,Wall St,SE,40.708436,-74.011298
10006,Wall St,SW,40.707315,-74.012161
10006,Wall St,SW,40.707428,-74.012067
10006,Wall St,NW,40.707577,-74.011927
10006,Wall St,NW,40.707671,-74.011854
10006,Rector St,NW,40.708191,-74.013582
10006,Broad St,SE,40.706911,-74.010494
10006,Broad St,SW,40.707117,-74.010821
10006,Broad St,SE,40.706887,-74.010687
zipcode,Station_Name,Corner,Latitude,Longitude
10012,8th St,SE,40.730477,-73.992286
10012,8th St,NE,40.730578,-73.992216
10012,Prince St,SE,40.724124,-73.997686
10012,Prince St,NE,40.72422,-73.997633
10012,Bowery,SE,40.719977,-73.993576
10012,Bowery,NE,40.720291,-73.993411
10012,West 4th St,,40.731086,-74.001209
10012,West 4th St,NW,40.731133,-74.001534
10012,West 4th St,NE,40.731091,-74.001127
10012,Spring St,NE,40.725583,-74.003747
10012,Broadway-Lafayette St,NE,40.725202,-73.996583
10012,Broadway-Lafayette St,SE,40.725499,-73.996387
10012,Bleecker St,SW,40.725726,-73.994579
10012,Bleecker St,SE,40.725755,-73.994367
10012,Bleecker St,NE,40.725845,-73.99432
10012,Bleecker St,,40.725137,-73.994938
10012,Bleecker St,,40.724888,-73.995291
10012,Spring St,SE,40.722116,-73.996912
10012,Spring St,NE,40.722235,-73.996818
10012,8th St,NE,40.729678,-73.993051
10012,8th St,SW,40.730642,-73.992737
10012,8th St,SW,40.730592,-73.99262
10012,8th St,NW,40.730716,-73.992517
10012,8th St,NW,40.730773,-73.992641
10012,Prince St,SW,40.72426,-73.997957
10012,Prince St,NW,40.724344,-73.997875
10012,Spring St,NW,40.725595,-74.004326
10012,Spring St,SW,40.726208,-74.00399
10012,Broadway-Lafayette St,NE,40.725344,-73.995612
10012,Bleecker St,SW,40.725958,-73.994829
10012,Bleecker St,NW,40.726047,-73.994759
10012,Spring St,NW,40.722468,-73.997397
10012,Spring St,SW,40.72239,-73.997437
10012,8th St,NW,40.729778,-73.993262
10012,Broadway-Lafayette St,SW,40.724987,-73.995628
10012,Broadway-Lafayette St,SE,40.725011,-73.995745
zipcode,Station_Name,Corner,Latitude,Longitude
10038,City Hall,SE,40.71311,-74.007045
10038,City Hall,NE,40.713437,-74.00676
10038,City Hall,SE,40.713521,-74.006697
10038,Chambers St,SW,40.713753,-74.009046
10038,World Trade Center,NE,40.713333,-74.009033
10038,World Trade Center,SW,40.712681,-74.009891
10038,World Trade Center,SW,40.713286,-74.009511
10038,World Trade Center,SE,40.713036,-74.009245
10038,World Trade Center,NW,40.713435,-74.009292
10038,World Trade Center,,40.711793,-74.010165
10038,World Trade Center,,40.71171,-74.010204
10038,World Trade Center,NW,40.712258,-74.010306
10038,Broadway-Nassau,NE,40.710692,-74.008428
10038,Broadway-Nassau,SE,40.710555,-74.008632
10038,Park Place,NW,40.712712,-74.007766
10038,Fulton St,SE,40.709475,-74.006409
10038,Wall St,NW,40.706506,-74.009544
10038,Wall St,NE,40.706392,-74.009332
10038,Brooklyn Bridge-City Hall,NW,40.712868,-74.004806
10038,Brooklyn Bridge-City Hall,NW,40.712723,-74.004971
10038,Brooklyn Bridge-City Hall,NE,40.712333,-74.004387
10038,Brooklyn Bridge-City Hall,SE,40.711857,-74.005114
10038,Brooklyn Bridge-City Hall,SE,40.711824,-74.005057
10038,Brooklyn Bridge-City Hall,NW,40.713721,-74.003734
10038,Brooklyn Bridge-City Hall,NW,40.713721,-74.003734
10038,Chambers St,SE,40.712699,-74.004099
10038,Chambers St,NE,40.714199,-74.003187
10038,Fulton St,SW,40.710241,-74.008022
10038,Fulton St,SE,40.710106,-74.007648
10038,Fulton St,SE,40.709376,-74.008375
10038,Fulton St,NW,40.710388,-74.007935
10038,Fulton St,NE,40.710211,-74.007584
10038,Fulton St,NE,40.709507,-74.008295
10038,Chambers St,NW,40.713949,-74.00896
10038,Chambers St,SW,40.714313,-74.008584
10038,Wall St,NW,40.707431,-74.008778
10038,Wall St,SW,40.706385,-74.009658
10038,Wall St,SE,40.706272,-74.009447
10038,Wall St,SE,40.706755,-74.008804
10038,Brooklyn Bridge-City Hall,NW,40.713839,-74.003864
10038,Brooklyn Bridge-City Hall,NW,40.713899,-74.003642
10038,Fulton St,SE,40.710166,-74.009424
10038,Fulton St,NE,40.710165,-74.009182
10038,Fulton St,NE,40.70863,-74.006999
10038,Fulton St,SE,40.7092,-74.006664
10038,Fulton St,SE,40.709046,-74.006814
10038,Chambers St,SE,40.7142,-74.008357
10038,Broad St,SE,40.708027,-74.009814
10038,Broad St,SE,40.706911,-74.010494
10038,Fulton St,SW,40.710944,-74.009403
10038,Fulton St,NW,40.711026,-74.00919
10038,Fulton St,NW,40.711112,-74.009382
zipcode,Station_Name,Corner,Latitude,Longitude
10003,Union Square,NE,40.735278,-73.991058
10003,8th St,SE,40.730477,-73.992286
10003,8th St,NE,40.730578,-73.992216
10003,Prince St,SE,40.724124,-73.997686
10003,Prince St,NE,40.72422,-73.997633
10003,3rd Av,SE,40.732961,-73.986657
10003,3rd Av,SE,40.733134,-73.987041
10003,1st Av,NE,40.731397,-73.982112
10003,1st Av,NE,40.731483,-73.982145
10003,14th St,SW,40.737423,-73.99722
10003,14th St,NW,40.737572,-73.997111
10003,14th St,NW,40.737519,-73.99697
10003,14th St,SW,40.73737,-73.997079
10003,Broadway-Lafayette St,NE,40.725202,-73.996583
10003,Broadway-Lafayette St,SE,40.725499,-73.996387
10003,2nd Av,NW,40.7232,-73.988863
10003,14th St,NE,40.738585,-73.999405
10003,14th St-Union Square,NE,40.734406,-73.989437
10003,14th St-Union Square,SE,40.73418,-73.989549
10003,14th St-Union Square,SE,40.734222,-73.989674
10003,Astor Place,NE,40.730084,-73.990838
10003,Bleecker St,SW,40.725726,-73.994579
10003,Bleecker St,SE,40.725755,-73.994367
10003,Bleecker St,NE,40.725845,-73.99432
10003,Bleecker St,,40.725137,-73.994938
10003,Bleecker St,,40.724888,-73.995291
10003,Union Square,SE,40.736339,-73.990603
10003,Union Square,NE,40.736523,-73.990447
10003,8th St,NE,40.729678,-73.993051
10003,8th St,SW,40.730642,-73.992737
10003,8th St,SW,40.730592,-73.99262
10003,8th St,NW,40.730716,-73.992517
10003,8th St,NW,40.730773,-73.992641
10003,Prince St,SW,40.72426,-73.997957
10003,Prince St,NW,40.724344,-73.997875
10003,6th Av,SE,40.737197,-73.996704
10003,6th Av,SE,40.737149,-73.996578
10003,Union Square,SW,40.734755,-73.990991
10003,Union Square,SW,40.734859,-73.991235
10003,3rd Av,NE,40.733122,-73.986548
10003,3rd Av,NE,40.733277,-73.986931
10003,1st Av,SE,40.73105,-73.982625
10003,1st Av,SE,40.731118,-73.982563
10003,14th St,NE,40.738678,-73.995632
10003,14th St,SE,40.738529,-73.995685
10003,14th St,NW,40.738838,-73.996023
10003,14th St,SW,40.738718,-73.996121
10003,14th St,NE,40.737286,-73.996437
10003,14th St,NE,40.737316,-73.996508
10003,Broadway-Lafayette St,NE,40.725344,-73.995612
10003,2nd Av,NW,40.72395,-73.991298
10003,2nd Av,SW,40.723665,-73.991651
10003,23rd St,SW,40.739501,-73.987134
10003,23rd St,NE,40.739477,-73.986562
10003,14th St-Union Square,SW,40.735184,-73.989793
10003,14th St-Union Square,SW,40.734495,-73.990311
10003,14th St-Union Square,SW,40.734444,-73.990184
10003,Astor Place,NW,40.729968,-73.99141
10003,Bleecker St,SW,40.725958,-73.994829
10003,Bleecker St,NW,40.726047,-73.994759
10003,Union Square,SW,40.735311,-73.990265
10003,8th St,NW,40.729778,-73.993262
10003,Broadway-Lafayette St,SW,40.724987,-73.995628
10003,Broadway-Lafayette St,SE,40.725011,-73.995745
zipcode,Station_Name,Corner,Latitude,Longitude
10011,Union Square,NE,40.735278,-73.991058
10011,8th Av,SE,40.73955,-74.002389
10011,8th Av,SW,40.739734,-74.002804
10011,42nd St,SW,40.755989,-73.991049
10011,42nd St,NW,40.756101,-73.990887
10011,34th St,SE,40.75202,-73.993352
10011,34th St,NE,40.752161,-73.993109
10011,23rd St,SE,40.745102,-73.998365
10011,23rd St,NE,40.745299,-73.998145
10011,14th St,SW,40.740938,-74.001919
10011,14th St,NW,40.741235,-74.001715
10011,14th St,SE,40.740944,-74.001402
10011,14th St,NE,40.741046,-74.001284
10011,14th St,NW,40.739949,-74.002655
10011,West 4th St,,40.731086,-74.001209
10011,West 4th St,NW,40.731133,-74.001534
10011,West 4th St,NE,40.731091,-74.001127
10011,23rd St,SE,40.742659,-73.992489
10011,23rd St,SE,40.742715,-73.992617
10011,23rd St,NE,40.74288,-73.992506
10011,23rd St,NE,40.742825,-73.992383
10011,14th St,SW,40.737423,-73.99722
10011,14th St,NW,40.737572,-73.997111
10011,14th St,NW,40.737519,-73.99697
10011,14th St,SW,40.73737,-73.997079
10011,34th St,SW,40.751046,-73.991271
10011,23rd St,SE,40.74391,-73.995608
10011,23rd St,NE,40.74412,-73.995348
10011,18th St,SE,40.74092,-73.997698
10011,18th St,NE,40.741015,-73.99758
10011,14th St,SW,40.738484,-73.999914
10011,14th St,NW,40.738775,-73.999711
10011,14th St,NE,40.738585,-73.999405
10011,Christopher St,SE,40.733402,-74.002748
10011,6th Av,SE,40.737197,-73.996704
10011,6th Av,SE,40.737149,-73.996578
10011,Union Square,SW,40.734755,-73.990991
10011,Union Square,SW,40.734859,-73.991235
10011,34th St,SE,40.752689,-73.992742
10011,34th St,NE,40.752796,-73.992669
10011,34th St,NE,40.752766,-73.992596
10011,34th St,SW,40.752877,-73.993244
10011,34th St,NW,40.753053,-73.993256
10011,34th St,NW,40.753032,-73.993188
10011,34th St,SW,40.752178,-73.993701
10011,34th St,NW,40.752427,-73.993679
10011,23rd St,NW,40.746732,-73.997711
10011,23rd St,SW,40.746603,-73.997801
10011,23rd St,SW,40.745278,-73.998771
10011,23rd St,NW,40.745505,-73.998642
10011,23rd St,NE,40.746535,-73.997271
10011,23rd St,NE,40.746483,-73.997142
10011,23rd St,NW,40.74611,-73.998145
10011,23rd St,SE,40.745814,-73.997852
10011,23rd St,SE,40.746427,-73.99735
10011,West 4th St,NE,40.733067,-73.999728
10011,West 4th St,NE,40.733259,-73.999615
10011,West 4th St,NW,40.733072,-74.000192
10011,23rd St,NW,40.743121,-73.993099
10011,23rd St,NW,40.743066,-73.992971
10011,23rd St,SW,40.742977,-73.993188
10011,23rd St,SW,40.742922,-73.993066
10011,14th St,NE,40.738678,-73.995632
10011,14th St,SE,40.738529,-73.995685
10011,14th St,NW,40.738838,-73.996023
10011,14th St,SW,40.738718,-73.996121
10011,14th St,NE,40.737286,-73.996437
10011,14th St,NE,40.737316,-73.996508
10011,34th St,NE,40.749656,-73.99113
10011,34th St,SE,40.750077,-73.99082
10011,34th St,NE,40.750313,-73.990854
10011,34th St,NW,40.750476,-73.991254
10011,34th St,SW,40.750982,-73.990899
10011,28th St,SW,40.747264,-73.993611
10011,28th St,NW,40.747392,-73.99351
10011,28th St,NW,40.746787,-73.993955
10011,28th St,NE,40.746594,-73.993555
10011,23rd St,SW,40.744017,-73.995901
10011,23rd St,NW,40.744313,-73.995811
10011,18th St,SW,40.741081,-73.998105
10011,18th St,NW,40.741206,-73.998035
10011,18th St,NW,40.741783,-73.997557
10011,18th St,NE,40.741617,-73.997197
10011,14th St,SE,40.738358,-73.999656
10011,14th St,NW,40.738013,-74.000329
10011,14th St,NW,40.737388,-74.000815
10011,14th St,NE,40.737197,-74.0004
10011,Christopher St,SW,40.733515,-74.003147
10011,Christopher St,SW,40.733467,-74.003076
10011,Christopher St,NW,40.733634,-74.003123
10011,Christopher St,NW,40.733652,-74.003006
10011,14th St,NE,40.74041,-74.00175
10011,14th St,NW,40.740598,-74.002185
10011,14th St,NE,40.739776,-74.002256
10011,14th St,NE,40.737846,-73.99993
10011,34th St,SE,40.751291,-73.993887
10011,34th St,NE,40.751432,-73.993538
10011,34th St,NW,40.751677,-73.994107
10011,34th St,SW,40.751561,-73.994243
10011,34th St,SW,40.751539,-73.994181
10011,34th St,W,40.74979,-73.991721
10011,28th St,SE,40.747036,-73.993138
10011,28th St,NE,40.747216,-73.993121
zipcode,Station_Name,Corner,Latitude,Longitude
10040,Dyckman St-200th St,NW,40.865758,-73.927266
10040,Dyckman St-200th St,NW,40.865744,-73.927172
10040,Dyckman St-200th St,SW,40.865362,-73.928059
10040,190th St,NW,40.858899,-73.932702
10040,190th St,SE,40.858886,-73.934226
10040,181st St,SE,40.852759,-73.936636
10040,Dyckman St,SW,40.861183,-73.92511
10040,Dyckman St,SW,40.861187,-73.925078
10040,191st St,SW,40.855374,-73.929536
10040,191st St,NE,40.856413,-73.932605
10040,Dyckman St-200th St,SE,40.865296,-73.927411
10040,Dyckman St-200th St,SE,40.865248,-73.927279
10040,Dyckman St-200th St,NE,40.865342,-73.926964
10040,Dyckman St-200th St,NE,40.865446,-73.927035
zipcode,Station_Name,Corner,Latitude,Longitude
10028,86th St,SW,40.779468,-73.955905
10028,86th St,NW,40.779718,-73.955719
10028,86th St,SW,40.779427,-73.95581
10028,86th St,NW,40.77972,-73.955596
10028,77th St,SW,40.773669,-73.960135
10028,77th St,NW,40.773779,-73.959954
10028,77th St,NW,40.773779,-73.960041
10028,77th St,SW,40.773636,-73.96006
10028,86th St,NE,40.779661,-73.955302
10028,86th St,NE,40.779577,-73.955304
10028,86th St,SE,40.779284,-73.955443
10028,86th St,SE,40.77933,-73.955545
10028,77th St,SE,40.773526,-73.959734
10028,77th St,NE,40.773631,-73.959659
10028,77th St,SE,40.773493,-73.959659
10028,77th St,NE,40.773603,-73.959578
zipcode,Station_Name,Corner,Latitude,Longitude
10020,47-50th Sts Rockefeller Center,NW,40.759434,-73.981001
10020,47-50th Sts Rockefeller Center,SW,40.759896,-73.980706
10020,47-50th Sts Rockefeller Center,SW,40.760502,-73.980218
10020,47-50th Sts Rockefeller Center,NE,40.759953,-73.980117
10020,47-50th Sts Rockefeller Center,NW,40.760125,-73.980499
10020,47-50th Sts Rockefeller Center,NE,40.759301,-73.980594
10020,47-50th Sts Rockefeller Center,NW,40.759414,-73.981035
10020,47-50th Sts Rockefeller Center,SE,40.758996,-73.980788
10020,49th St,NE,40.760454,-73.983388
10020,49th St,SE,40.760297,-73.983567
10020,47-50th Sts Rockefeller Center,SW,40.758623,-73.981566
10020,47-50th Sts Rockefeller Center,W,40.758977,-73.981352
10020,47-50th Sts Rockefeller Center,W,40.759105,-73.981252
10020,47-50th Sts Rockefeller Center,SE,40.757801,-73.981788
10020,47-50th Sts Rockefeller Center,SW,40.758024,-73.982079
10020,47-50th Sts Rockefeller Center,NE,40.757981,-73.98154
10020,47-50th Sts Rockefeller Center,SE,40.757862,-73.981735
10020,47-50th Sts Rockefeller Center,SE,40.758486,-73.981158
10020,47-50th Sts Rockefeller Center,NE,40.758615,-73.981095
zipcode,Station_Name,Corner,Latitude,Longitude
10013,Prince St,SE,40.724124,-73.997686
10013,Prince St,NE,40.72422,-73.997633
10013,City Hall,SE,40.713521,-74.006697
10013,Spring St,NE,40.725583,-74.003747
10013,Canal St,NE,40.720704,-74.004999
10013,Canal St,NW,40.720758,-74.005399
10013,Canal St,SE,40.721651,-74.005634
10013,Canal St,NE,40.721967,-74.005133
10013,Chambers St,SW,40.713753,-74.009046
10013,Broadway-Lafayette St,NE,40.725202,-73.996583
10013,Broadway-Lafayette St,SE,40.725499,-73.996387
10013,Canal St,NE,40.722569,-74.00608
10013,Canal St,NE,40.722497,-74.005994
10013,Franklin St,SW,40.719001,-74.006675
10013,Chambers St,SW,40.715444,-74.009453
10013,Chambers St,SE,40.715349,-74.009211
10013,Chambers St,NW,40.715736,-74.009328
10013,Chambers St,NE,40.715576,-74.009031
10013,Chambers St,SW,40.715539,-74.009427
10013,Bleecker St,SW,40.725726,-73.994579
10013,Bleecker St,SE,40.725755,-73.994367
10013,Bleecker St,NE,40.725845,-73.99432
10013,Bleecker St,,40.725137,-73.994938
10013,Bleecker St,,40.724888,-73.995291
10013,Spring St,SE,40.722116,-73.996912
10013,Spring St,NE,40.722235,-73.996818
10013,Canal St,SE,40.718155,-74.000317
10013,Canal St,SE,40.718197,-74.000388
10013,Brooklyn Bridge-City Hall,NW,40.713721,-74.003734
10013,Brooklyn Bridge-City Hall,NW,40.713721,-74.003734
10013,Prince St,SW,40.72426,-73.997957
10013,Prince St,NW,40.724344,-73.997875
10013,Canal St (UL),NW,40.719585,-74.00193
10013,Canal St (UL),NW,40.71966,-74.002019
10013,Canal St (UL),SW,40.719408,-74.002158
10013,Canal St (UL),SW,40.71946,-74.002236
10013,Canal St,SW,40.717823,-74.000326
10013,Chambers St,NE,40.714199,-74.003187
10013,Spring St,NW,40.725595,-74.004326
10013,Spring St,SW,40.726208,-74.00399
10013,Canal St,NE,40.71987,-74.005038
10013,Chambers St,SW,40.714873,-74.008162
10013,Chambers St,SE,40.714777,-74.007903
10013,Chambers St,NW,40.715099,-74.007989
10013,Chambers St,NE,40.714992,-74.007739
10013,Chambers St,NW,40.713949,-74.00896
10013,Chambers St,SW,40.714313,-74.008584
10013,Chambers St,NW,40.714539,-74.008428
10013,Broadway-Lafayette St,NE,40.725344,-73.995612
10013,Canal St,NW,40.722932,-74.00662
10013,Canal St,NW,40.722878,-74.006518
10013,Franklin St,NE,40.719918,-74.00662
10013,Franklin St,SW,40.718965,-74.007121
10013,Franklin St,NW,40.719251,-74.007058
10013,Franklin St,NW,40.719888,-74.006925
10013,Bleecker St,SW,40.725958,-73.994829
10013,Bleecker St,NW,40.726047,-73.994759
10013,Spring St,NW,40.722468,-73.997397
10013,Spring St,SW,40.72239,-73.997437
10013,Canal St,NE,40.718304,-74.000138
10013,Canal St,NE,40.718358,-74.000216
10013,Brooklyn Bridge-City Hall,NW,40.713839,-74.003864
10013,Brooklyn Bridge-City Hall,NW,40.713899,-74.003642
10013,Chambers St,SE,40.7142,-74.008357
10013,Canal St (UL),NE,40.719498,-74.001606
10013,Canal St (UL),SE,40.719218,-74.00185
10013,Canal St (UL),SE,40.719166,-74.001774
10013,Broadway-Lafayette St,SW,40.724987,-73.995628
10013,Broadway-Lafayette St,SE,40.725011,-73.995745
10013,Canal St,NW,40.718589,-74.000552
10013,Canal St,SW,40.718506,-74.000826
10013,Canal St,NW,40.718638,-74.000623
zipcode,Station_Name,Corner,Latitude,Longitude
10005,Wall St,NW,40.706506,-74.009544
10005,Wall St,NE,40.706392,-74.009332
10005,Wall St,SE,40.70719,-74.011997
10005,Wall St,SE,40.707446,-74.011848
10005,Wall St,SE,40.707577,-74.011731
10005,Broad St,SE,40.706142,-74.011128
10005,Broad St,SE,40.705961,-74.011229
10005,Broad St,SW,40.706001,-74.011497
10005,Broad St,NW,40.706439,-74.011263
10005,Broad St,SW,40.705747,-74.011554
10005,Wall St,NW,40.707431,-74.008778
10005,Wall St,SW,40.706385,-74.009658
10005,Wall St,SE,40.706272,-74.009447
10005,Wall St,SE,40.706755,-74.008804
10005,Wall St,SE,40.708436,-74.011298
10005,Wall St,SW,40.707315,-74.012161
10005,Wall St,SW,40.707428,-74.012067
10005,Wall St,NW,40.707577,-74.011927
10005,Wall St,NW,40.707671,-74.011854
10005,Fulton St,NE,40.70863,-74.006999
10005,Fulton St,SE,40.7092,-74.006664
10005,Fulton St,SE,40.709046,-74.006814
10005,Broad St,SE,40.708027,-74.009814
10005,Broad St,SE,40.706911,-74.010494
10005,Broad St,SW,40.707117,-74.010821
10005,Broad St,SE,40.706887,-74.010687
zipcode,Station_Name,Corner,Latitude,Longitude
10032,175th St,NE,40.847946,-73.939375
10032,175th St,SW,40.847809,-73.939807
10032,175th St,NW,40.847944,-73.939679
10032,175th St,NE,40.847859,-73.939303
10032,175th St,NW,40.847992,-73.939564
10032,168th St - Washington Heights,SE,40.840741,-73.939252
10032,163rd St - Amsterdam Av,SE,40.835192,-73.940146
10032,163rd St - Amsterdam Av,NE,40.835278,-73.939625
10032,163rd St - Amsterdam Av,SW,40.835936,-73.940137
10032,155th St,SW,40.830744,-73.941597
10032,155th St,SW,40.830854,-73.941638
10032,155th St,NW,40.831106,-73.94155
10032,155th St,NW,40.831139,-73.941447
10032,155th St,NE,40.831031,-73.941149
10032,155th St,NE,40.830921,-73.9411
10032,155th St,NW,40.830313,-73.936687
10032,157th St,NW,40.834268,-73.945183
10032,157th St,NW,40.834221,-73.945073
10032,175th St,SW,40.846352,-73.940287
10032,175th St,SE,40.846407,-73.939861
10032,168th St - Washington Heights,NW,40.84186,-73.939569
10032,168th St - Washington Heights,NW,40.841928,-73.939455
10032,168th St - Washington Heights,NE,40.84176,-73.939067
10032,168th St,SW,40.840859,-73.940209
10032,168th St,,40.841024,-73.940083
10032,157th St,SE,40.83386,-73.94462
10032,157th St,SE,40.833832,-73.944753
10032,168th St,SE,40.840717,-73.93972
zipcode,Station_Name,Corner,Latitude,Longitude
10027,135th St,SW,40.817125,-73.948225
10027,125th St,NE,40.810879,-73.952318
10027,125th St,SE,40.810526,-73.952583
10027,125th St,NW,40.811007,-73.952615
10027,125th St,SW,40.810636,-73.952886
10027,116th St,SW,40.804312,-73.955643
10027,116th St,NW,40.804639,-73.955559
10027,137th St-City College,NW,40.821584,-73.954223
10027,137th St-City College,SW,40.821348,-73.954408
10027,125th St,NE,40.815143,-73.958439
10027,125th St,NW,40.815688,-73.958554
10027,125th St,SW,40.815307,-73.958826
10027,125th St,SW,40.81523,-73.958366
10027,116th St-Columbia University,NW,40.808251,-73.963955
10027,116th St-Columbia University,NE,40.808099,-73.963603
10027,116th St-Columbia University,NW,40.8084,-73.963845
10027,116th St-Columbia University,NE,40.808245,-73.963495
10027,135th St,SW,40.814024,-73.941117
10027,135th St,NW,40.814316,-73.94091
10027,125th St,SW,40.807681,-73.945752
10027,125th St,NW,40.807995,-73.945524
10027,135th St,SW,40.818558,-73.947543
10027,135th St,NE,40.817188,-73.947665
10027,135th St,SW,40.816892,-73.947818
10027,135th St,SE,40.816867,-73.947953
10027,135th St,SE,40.818354,-73.947213
10027,125th St,SE,40.811858,-73.951351
10027,125th St,SW,40.81199,-73.951745
10027,116th St,NE,40.804428,-73.955024
10027,116th St,SE,40.804172,-73.955131
10027,137th St-City College,NE,40.821454,-73.953856
10027,137th St-City College,NE,40.821391,-73.953906
10027,116th St-Columbia University,SE,40.807535,-73.964013
10027,135th St,SE,40.813896,-73.940831
10027,135th St,NE,40.814188,-73.940618
10027,125th St,SE,40.807548,-73.945463
10027,125th St,NE,40.807875,-73.945229
zipcode,Station_Name,Corner,Latitude,Longitude
10027,135th St,SW,40.817125,-73.948225
10027,125th St,NE,40.810879,-73.952318
10027,125th St,SE,40.810526,-73.952583
10027,125th St,NW,40.811007,-73.952615
10027,125th St,SW,40.810636,-73.952886
10027,116th St,SW,40.804312,-73.955643
10027,116th St,NW,40.804639,-73.955559
10027,137th St-City College,NW,40.821584,-73.954223
10027,137th St-City College,SW,40.821348,-73.954408
10027,125th St,NE,40.815143,-73.958439
10027,125th St,NW,40.815688,-73.958554
10027,125th St,SW,40.815307,-73.958826
10027,125th St,SW,40.81523,-73.958366
10027,116th St-Columbia University,NW,40.808251,-73.963955
10027,116th St-Columbia University,NE,40.808099,-73.963603
10027,116th St-Columbia University,NW,40.8084,-73.963845
10027,116th St-Columbia University,NE,40.808245,-73.963495
10027,135th St,SW,40.814024,-73.941117
10027,135th St,NW,40.814316,-73.94091
10027,125th St,SW,40.807681,-73.945752
10027,125th St,NW,40.807995,-73.945524
10027,135th St,SW,40.818558,-73.947543
10027,135th St,NE,40.817188,-73.947665
10027,135th St,SW,40.816892,-73.947818
10027,135th St,SE,40.816867,-73.947953
10027,135th St,SE,40.818354,-73.947213
10027,125th St,SE,40.811858,-73.951351
10027,125th St,SW,40.81199,-73.951745
10027,116th St,NE,40.804428,-73.955024
10027,116th St,SE,40.804172,-73.955131
10027,137th St-City College,NE,40.821454,-73.953856
10027,137th St-City College,NE,40.821391,-73.953906
10027,116th St-Columbia University,SE,40.807535,-73.964013
10027,135th St,SE,40.813896,-73.940831
10027,135th St,NE,40.814188,-73.940618
10027,125th St,SE,40.807548,-73.945463
10027,125th St,NE,40.807875,-73.945229
